<?xml version="1.0" encoding="UTF-8"?>
<gpx version="1.0" creator="GPSBabel - https://www.gpsbabel.org" xmlns="http://www.topografix.com/GPX/1/0">
  <time>2026-05-27T10:13:43.969Z</time>
  <bounds minlat="46.027920000" minlon="4.121400000" maxlat="46.073810000" maxlon="4.243580000"/>
  <trk>
    <trkseg>
      <trkpt lat="46.045460000" lon="4.131150000">
        <ele>330.000</ele>
      </trkpt>
      <trkpt lat="46.045570000" lon="4.131450000">
        <ele>329.000</ele>
      </trkpt>
      <trkpt lat="46.046040000" lon="4.132670000">
        <ele>329.000</ele>
      </trkpt>
      <trkpt lat="46.046730000" lon="4.133230000">
        <ele>329.000</ele>
      </trkpt>
      <trkpt lat="46.049260000" lon="4.135570000">
        <ele>329.000</ele>
      </trkpt>
      <trkpt lat="46.049370000" lon="4.135640000">
        <ele>328.000</ele>
      </trkpt>
      <trkpt lat="46.049530000" lon="4.135680000">
        <ele>328.000</ele>
      </trkpt>
      <trkpt lat="46.049720000" lon="4.135700000">
        <ele>328.000</ele>
      </trkpt>
      <trkpt lat="46.052460000" lon="4.135560000">
        <ele>328.000</ele>
      </trkpt>
      <trkpt lat="46.052750000" lon="4.135430000">
        <ele>329.000</ele>
      </trkpt>
      <trkpt lat="46.053520000" lon="4.134890000">
        <ele>329.000</ele>
      </trkpt>
      <trkpt lat="46.053880000" lon="4.134940000">
        <ele>329.000</ele>
      </trkpt>
      <trkpt lat="46.053960000" lon="4.134980000">
        <ele>328.000</ele>
      </trkpt>
      <trkpt lat="46.054120000" lon="4.135070000">
        <ele>328.000</ele>
      </trkpt>
      <trkpt lat="46.054570000" lon="4.135550000">
        <ele>328.000</ele>
      </trkpt>
      <trkpt lat="46.054810000" lon="4.135810000">
        <ele>328.000</ele>
      </trkpt>
      <trkpt lat="46.055310000" lon="4.136540000">
        <ele>330.000</ele>
      </trkpt>
      <trkpt lat="46.056030000" lon="4.137470000">
        <ele>333.000</ele>
      </trkpt>
      <trkpt lat="46.056340000" lon="4.137850000">
        <ele>335.000</ele>
      </trkpt>
      <trkpt lat="46.056500000" lon="4.138010000">
        <ele>336.000</ele>
      </trkpt>
      <trkpt lat="46.056670000" lon="4.138120000">
        <ele>337.000</ele>
      </trkpt>
      <trkpt lat="46.056690000" lon="4.138130000">
        <ele>337.000</ele>
      </trkpt>
      <trkpt lat="46.057490000" lon="4.138430000">
        <ele>338.000</ele>
      </trkpt>
      <trkpt lat="46.057640000" lon="4.138510000">
        <ele>338.000</ele>
      </trkpt>
      <trkpt lat="46.057770000" lon="4.138650000">
        <ele>338.000</ele>
      </trkpt>
      <trkpt lat="46.057810000" lon="4.138950000">
        <ele>338.000</ele>
      </trkpt>
      <trkpt lat="46.057690000" lon="4.139970000">
        <ele>336.000</ele>
      </trkpt>
      <trkpt lat="46.057550000" lon="4.141480000">
        <ele>333.000</ele>
      </trkpt>
      <trkpt lat="46.057370000" lon="4.143280000">
        <ele>327.000</ele>
      </trkpt>
      <trkpt lat="46.057170000" lon="4.144530000">
        <ele>322.000</ele>
      </trkpt>
      <trkpt lat="46.057010000" lon="4.145210000">
        <ele>318.000</ele>
      </trkpt>
      <trkpt lat="46.056420000" lon="4.147300000">
        <ele>312.000</ele>
      </trkpt>
      <trkpt lat="46.056360000" lon="4.147620000">
        <ele>308.000</ele>
      </trkpt>
      <trkpt lat="46.056400000" lon="4.147940000">
        <ele>305.000</ele>
      </trkpt>
      <trkpt lat="46.056540000" lon="4.148270000">
        <ele>302.000</ele>
      </trkpt>
      <trkpt lat="46.056740000" lon="4.148600000">
        <ele>300.000</ele>
      </trkpt>
      <trkpt lat="46.056990000" lon="4.148840000">
        <ele>298.000</ele>
      </trkpt>
      <trkpt lat="46.057310000" lon="4.149060000">
        <ele>297.000</ele>
      </trkpt>
      <trkpt lat="46.058520000" lon="4.149880000">
        <ele>294.000</ele>
      </trkpt>
      <trkpt lat="46.058700000" lon="4.149950000">
        <ele>292.000</ele>
      </trkpt>
      <trkpt lat="46.058840000" lon="4.150000000">
        <ele>291.000</ele>
      </trkpt>
      <trkpt lat="46.059290000" lon="4.150100000">
        <ele>292.000</ele>
      </trkpt>
      <trkpt lat="46.059430000" lon="4.150160000">
        <ele>293.000</ele>
      </trkpt>
      <trkpt lat="46.059550000" lon="4.150270000">
        <ele>293.000</ele>
      </trkpt>
      <trkpt lat="46.059660000" lon="4.150530000">
        <ele>295.000</ele>
      </trkpt>
      <trkpt lat="46.059710000" lon="4.150820000">
        <ele>296.000</ele>
      </trkpt>
      <trkpt lat="46.059750000" lon="4.151500000">
        <ele>298.000</ele>
      </trkpt>
      <trkpt lat="46.059820000" lon="4.151870000">
        <ele>300.000</ele>
      </trkpt>
      <trkpt lat="46.059930000" lon="4.152180000">
        <ele>302.000</ele>
      </trkpt>
      <trkpt lat="46.060110000" lon="4.152490000">
        <ele>304.000</ele>
      </trkpt>
      <trkpt lat="46.060310000" lon="4.152710000">
        <ele>306.000</ele>
      </trkpt>
      <trkpt lat="46.060690000" lon="4.153000000">
        <ele>309.000</ele>
      </trkpt>
      <trkpt lat="46.061160000" lon="4.153150000">
        <ele>313.000</ele>
      </trkpt>
      <trkpt lat="46.062090000" lon="4.153100000">
        <ele>317.000</ele>
      </trkpt>
      <trkpt lat="46.062450000" lon="4.153340000">
        <ele>321.000</ele>
      </trkpt>
      <trkpt lat="46.062520000" lon="4.153640000">
        <ele>324.000</ele>
      </trkpt>
      <trkpt lat="46.062580000" lon="4.154730000">
        <ele>327.000</ele>
      </trkpt>
      <trkpt lat="46.062820000" lon="4.155750000">
        <ele>332.000</ele>
      </trkpt>
      <trkpt lat="46.063150000" lon="4.156780000">
        <ele>337.000</ele>
      </trkpt>
      <trkpt lat="46.063560000" lon="4.157560000">
        <ele>342.000</ele>
      </trkpt>
      <trkpt lat="46.063870000" lon="4.158010000">
        <ele>346.000</ele>
      </trkpt>
      <trkpt lat="46.064170000" lon="4.158420000">
        <ele>349.000</ele>
      </trkpt>
      <trkpt lat="46.065050000" lon="4.159310000">
        <ele>353.000</ele>
      </trkpt>
      <trkpt lat="46.065250000" lon="4.159500000">
        <ele>356.000</ele>
      </trkpt>
      <trkpt lat="46.065250000" lon="4.159500000">
        <ele>358.000</ele>
      </trkpt>
      <trkpt lat="46.066290000" lon="4.160530000">
        <ele>361.000</ele>
      </trkpt>
      <trkpt lat="46.066650000" lon="4.160900000">
        <ele>364.000</ele>
      </trkpt>
      <trkpt lat="46.067470000" lon="4.162410000">
        <ele>367.000</ele>
      </trkpt>
      <trkpt lat="46.067860000" lon="4.163140000">
        <ele>369.000</ele>
      </trkpt>
      <trkpt lat="46.068120000" lon="4.163470000">
        <ele>372.000</ele>
      </trkpt>
      <trkpt lat="46.068520000" lon="4.163820000">
        <ele>375.000</ele>
      </trkpt>
      <trkpt lat="46.069170000" lon="4.164440000">
        <ele>379.000</ele>
      </trkpt>
      <trkpt lat="46.069480000" lon="4.164890000">
        <ele>382.000</ele>
      </trkpt>
      <trkpt lat="46.069580000" lon="4.165150000">
        <ele>385.000</ele>
      </trkpt>
      <trkpt lat="46.069680000" lon="4.165460000">
        <ele>387.000</ele>
      </trkpt>
      <trkpt lat="46.069900000" lon="4.166320000">
        <ele>388.000</ele>
      </trkpt>
      <trkpt lat="46.069930000" lon="4.166660000">
        <ele>389.000</ele>
      </trkpt>
      <trkpt lat="46.069940000" lon="4.166970000">
        <ele>390.000</ele>
      </trkpt>
      <trkpt lat="46.069710000" lon="4.167790000">
        <ele>391.000</ele>
      </trkpt>
      <trkpt lat="46.069680000" lon="4.168050000">
        <ele>391.000</ele>
      </trkpt>
      <trkpt lat="46.069670000" lon="4.168330000">
        <ele>392.000</ele>
      </trkpt>
      <trkpt lat="46.069680000" lon="4.168620000">
        <ele>392.000</ele>
      </trkpt>
      <trkpt lat="46.069760000" lon="4.169820000">
        <ele>393.000</ele>
      </trkpt>
      <trkpt lat="46.069750000" lon="4.170570000">
        <ele>393.000</ele>
      </trkpt>
      <trkpt lat="46.069750000" lon="4.171640000">
        <ele>395.000</ele>
      </trkpt>
      <trkpt lat="46.069850000" lon="4.172770000">
        <ele>397.000</ele>
      </trkpt>
      <trkpt lat="46.069900000" lon="4.173680000">
        <ele>400.000</ele>
      </trkpt>
      <trkpt lat="46.069980000" lon="4.174200000">
        <ele>402.000</ele>
      </trkpt>
      <trkpt lat="46.070270000" lon="4.176030000">
        <ele>404.000</ele>
      </trkpt>
      <trkpt lat="46.070330000" lon="4.176400000">
        <ele>406.000</ele>
      </trkpt>
      <trkpt lat="46.070410000" lon="4.176970000">
        <ele>407.000</ele>
      </trkpt>
      <trkpt lat="46.070450000" lon="4.177270000">
        <ele>407.000</ele>
      </trkpt>
      <trkpt lat="46.070720000" lon="4.178980000">
        <ele>408.000</ele>
      </trkpt>
      <trkpt lat="46.070760000" lon="4.179210000">
        <ele>409.000</ele>
      </trkpt>
      <trkpt lat="46.070840000" lon="4.179660000">
        <ele>409.000</ele>
      </trkpt>
      <trkpt lat="46.071290000" lon="4.182120000">
        <ele>411.000</ele>
      </trkpt>
      <trkpt lat="46.071950000" lon="4.185840000">
        <ele>415.000</ele>
      </trkpt>
      <trkpt lat="46.072020000" lon="4.186450000">
        <ele>419.000</ele>
      </trkpt>
      <trkpt lat="46.072080000" lon="4.187060000">
        <ele>421.000</ele>
      </trkpt>
      <trkpt lat="46.072390000" lon="4.189770000">
        <ele>424.000</ele>
      </trkpt>
      <trkpt lat="46.072460000" lon="4.190690000">
        <ele>428.000</ele>
      </trkpt>
      <trkpt lat="46.072480000" lon="4.190860000">
        <ele>430.000</ele>
      </trkpt>
      <trkpt lat="46.072540000" lon="4.191280000">
        <ele>432.000</ele>
      </trkpt>
      <trkpt lat="46.072590000" lon="4.191660000">
        <ele>434.000</ele>
      </trkpt>
      <trkpt lat="46.072670000" lon="4.192110000">
        <ele>436.000</ele>
      </trkpt>
      <trkpt lat="46.072780000" lon="4.192630000">
        <ele>438.000</ele>
      </trkpt>
      <trkpt lat="46.072820000" lon="4.192910000">
        <ele>439.000</ele>
      </trkpt>
      <trkpt lat="46.072840000" lon="4.193090000">
        <ele>440.000</ele>
      </trkpt>
      <trkpt lat="46.072860000" lon="4.193650000">
        <ele>441.000</ele>
      </trkpt>
      <trkpt lat="46.072870000" lon="4.193910000">
        <ele>442.000</ele>
      </trkpt>
      <trkpt lat="46.072900000" lon="4.194970000">
        <ele>444.000</ele>
      </trkpt>
      <trkpt lat="46.072920000" lon="4.195550000">
        <ele>445.000</ele>
      </trkpt>
      <trkpt lat="46.072910000" lon="4.196230000">
        <ele>446.000</ele>
      </trkpt>
      <trkpt lat="46.072940000" lon="4.197200000">
        <ele>448.000</ele>
      </trkpt>
      <trkpt lat="46.072970000" lon="4.198650000">
        <ele>450.000</ele>
      </trkpt>
      <trkpt lat="46.072990000" lon="4.199760000">
        <ele>451.000</ele>
      </trkpt>
      <trkpt lat="46.073040000" lon="4.201440000">
        <ele>453.000</ele>
      </trkpt>
      <trkpt lat="46.073090000" lon="4.203400000">
        <ele>455.000</ele>
      </trkpt>
      <trkpt lat="46.072950000" lon="4.203430000">
        <ele>457.000</ele>
      </trkpt>
      <trkpt lat="46.072950000" lon="4.203430000">
        <ele>458.000</ele>
      </trkpt>
      <trkpt lat="46.073090000" lon="4.203400000">
        <ele>459.000</ele>
      </trkpt>
      <trkpt lat="46.073100000" lon="4.203820000">
        <ele>460.000</ele>
      </trkpt>
      <trkpt lat="46.073120000" lon="4.204050000">
        <ele>460.000</ele>
      </trkpt>
      <trkpt lat="46.073140000" lon="4.204590000">
        <ele>459.000</ele>
      </trkpt>
      <trkpt lat="46.073120000" lon="4.204660000">
        <ele>459.000</ele>
      </trkpt>
      <trkpt lat="46.073120000" lon="4.204760000">
        <ele>459.000</ele>
      </trkpt>
      <trkpt lat="46.073120000" lon="4.204810000">
        <ele>458.000</ele>
      </trkpt>
      <trkpt lat="46.073090000" lon="4.204850000">
        <ele>458.000</ele>
      </trkpt>
      <trkpt lat="46.073070000" lon="4.204900000">
        <ele>458.000</ele>
      </trkpt>
      <trkpt lat="46.073070000" lon="4.204960000">
        <ele>457.000</ele>
      </trkpt>
      <trkpt lat="46.073090000" lon="4.205020000">
        <ele>457.000</ele>
      </trkpt>
      <trkpt lat="46.073120000" lon="4.205070000">
        <ele>457.000</ele>
      </trkpt>
      <trkpt lat="46.073170000" lon="4.205100000">
        <ele>456.000</ele>
      </trkpt>
      <trkpt lat="46.073210000" lon="4.205280000">
        <ele>456.000</ele>
      </trkpt>
      <trkpt lat="46.073220000" lon="4.205360000">
        <ele>456.000</ele>
      </trkpt>
      <trkpt lat="46.073220000" lon="4.205480000">
        <ele>455.000</ele>
      </trkpt>
      <trkpt lat="46.073150000" lon="4.206230000">
        <ele>454.000</ele>
      </trkpt>
      <trkpt lat="46.073100000" lon="4.206650000">
        <ele>452.000</ele>
      </trkpt>
      <trkpt lat="46.073080000" lon="4.207010000">
        <ele>452.000</ele>
      </trkpt>
      <trkpt lat="46.073100000" lon="4.207530000">
        <ele>451.000</ele>
      </trkpt>
      <trkpt lat="46.073100000" lon="4.207670000">
        <ele>451.000</ele>
      </trkpt>
      <trkpt lat="46.073120000" lon="4.208020000">
        <ele>452.000</ele>
      </trkpt>
      <trkpt lat="46.073150000" lon="4.208430000">
        <ele>452.000</ele>
      </trkpt>
      <trkpt lat="46.073190000" lon="4.208740000">
        <ele>452.000</ele>
      </trkpt>
      <trkpt lat="46.073220000" lon="4.208850000">
        <ele>453.000</ele>
      </trkpt>
      <trkpt lat="46.073290000" lon="4.209080000">
        <ele>453.000</ele>
      </trkpt>
      <trkpt lat="46.073350000" lon="4.209300000">
        <ele>454.000</ele>
      </trkpt>
      <trkpt lat="46.073420000" lon="4.209450000">
        <ele>454.000</ele>
      </trkpt>
      <trkpt lat="46.073620000" lon="4.209980000">
        <ele>453.000</ele>
      </trkpt>
      <trkpt lat="46.073720000" lon="4.210240000">
        <ele>453.000</ele>
      </trkpt>
      <trkpt lat="46.073790000" lon="4.210450000">
        <ele>452.000</ele>
      </trkpt>
      <trkpt lat="46.073800000" lon="4.210530000">
        <ele>452.000</ele>
      </trkpt>
      <trkpt lat="46.073810000" lon="4.210670000">
        <ele>451.000</ele>
      </trkpt>
      <trkpt lat="46.073780000" lon="4.211030000">
        <ele>451.000</ele>
      </trkpt>
      <trkpt lat="46.073760000" lon="4.211310000">
        <ele>450.000</ele>
      </trkpt>
      <trkpt lat="46.073730000" lon="4.211760000">
        <ele>449.000</ele>
      </trkpt>
      <trkpt lat="46.073680000" lon="4.212240000">
        <ele>448.000</ele>
      </trkpt>
      <trkpt lat="46.073670000" lon="4.212400000">
        <ele>447.000</ele>
      </trkpt>
      <trkpt lat="46.073660000" lon="4.212420000">
        <ele>446.000</ele>
      </trkpt>
      <trkpt lat="46.073540000" lon="4.213050000">
        <ele>445.000</ele>
      </trkpt>
      <trkpt lat="46.073430000" lon="4.213520000">
        <ele>443.000</ele>
      </trkpt>
      <trkpt lat="46.073410000" lon="4.213590000">
        <ele>442.000</ele>
      </trkpt>
      <trkpt lat="46.073360000" lon="4.213770000">
        <ele>440.000</ele>
      </trkpt>
      <trkpt lat="46.073320000" lon="4.213900000">
        <ele>439.000</ele>
      </trkpt>
      <trkpt lat="46.073270000" lon="4.214030000">
        <ele>439.000</ele>
      </trkpt>
      <trkpt lat="46.073060000" lon="4.214090000">
        <ele>438.000</ele>
      </trkpt>
      <trkpt lat="46.072820000" lon="4.214180000">
        <ele>437.000</ele>
      </trkpt>
      <trkpt lat="46.072610000" lon="4.214300000">
        <ele>435.000</ele>
      </trkpt>
      <trkpt lat="46.072220000" lon="4.214660000">
        <ele>434.000</ele>
      </trkpt>
      <trkpt lat="46.072030000" lon="4.214810000">
        <ele>433.000</ele>
      </trkpt>
      <trkpt lat="46.071910000" lon="4.214910000">
        <ele>432.000</ele>
      </trkpt>
      <trkpt lat="46.071740000" lon="4.214980000">
        <ele>431.000</ele>
      </trkpt>
      <trkpt lat="46.071610000" lon="4.214990000">
        <ele>430.000</ele>
      </trkpt>
      <trkpt lat="46.071500000" lon="4.214990000">
        <ele>429.000</ele>
      </trkpt>
      <trkpt lat="46.071380000" lon="4.214940000">
        <ele>429.000</ele>
      </trkpt>
      <trkpt lat="46.071180000" lon="4.214740000">
        <ele>428.000</ele>
      </trkpt>
      <trkpt lat="46.070850000" lon="4.214390000">
        <ele>426.000</ele>
      </trkpt>
      <trkpt lat="46.070730000" lon="4.214260000">
        <ele>425.000</ele>
      </trkpt>
      <trkpt lat="46.070600000" lon="4.214180000">
        <ele>424.000</ele>
      </trkpt>
      <trkpt lat="46.070400000" lon="4.214200000">
        <ele>422.000</ele>
      </trkpt>
      <trkpt lat="46.070270000" lon="4.214230000">
        <ele>421.000</ele>
      </trkpt>
      <trkpt lat="46.070100000" lon="4.214280000">
        <ele>420.000</ele>
      </trkpt>
      <trkpt lat="46.069950000" lon="4.214280000">
        <ele>419.000</ele>
      </trkpt>
      <trkpt lat="46.069500000" lon="4.214140000">
        <ele>417.000</ele>
      </trkpt>
      <trkpt lat="46.069200000" lon="4.214090000">
        <ele>416.000</ele>
      </trkpt>
      <trkpt lat="46.069030000" lon="4.214040000">
        <ele>414.000</ele>
      </trkpt>
      <trkpt lat="46.068930000" lon="4.213990000">
        <ele>414.000</ele>
      </trkpt>
      <trkpt lat="46.068840000" lon="4.213880000">
        <ele>413.000</ele>
      </trkpt>
      <trkpt lat="46.068800000" lon="4.213770000">
        <ele>412.000</ele>
      </trkpt>
      <trkpt lat="46.068770000" lon="4.213600000">
        <ele>412.000</ele>
      </trkpt>
      <trkpt lat="46.068770000" lon="4.213390000">
        <ele>412.000</ele>
      </trkpt>
      <trkpt lat="46.068810000" lon="4.213020000">
        <ele>411.000</ele>
      </trkpt>
      <trkpt lat="46.068920000" lon="4.212300000">
        <ele>410.000</ele>
      </trkpt>
      <trkpt lat="46.068900000" lon="4.212210000">
        <ele>409.000</ele>
      </trkpt>
      <trkpt lat="46.068860000" lon="4.212120000">
        <ele>409.000</ele>
      </trkpt>
      <trkpt lat="46.068740000" lon="4.212050000">
        <ele>408.000</ele>
      </trkpt>
      <trkpt lat="46.068620000" lon="4.212080000">
        <ele>407.000</ele>
      </trkpt>
      <trkpt lat="46.068410000" lon="4.212220000">
        <ele>406.000</ele>
      </trkpt>
      <trkpt lat="46.068210000" lon="4.212370000">
        <ele>405.000</ele>
      </trkpt>
      <trkpt lat="46.068050000" lon="4.212450000">
        <ele>404.000</ele>
      </trkpt>
      <trkpt lat="46.067840000" lon="4.212480000">
        <ele>403.000</ele>
      </trkpt>
      <trkpt lat="46.067620000" lon="4.212450000">
        <ele>401.000</ele>
      </trkpt>
      <trkpt lat="46.067430000" lon="4.212400000">
        <ele>400.000</ele>
      </trkpt>
      <trkpt lat="46.067350000" lon="4.212380000">
        <ele>399.000</ele>
      </trkpt>
      <trkpt lat="46.067220000" lon="4.212340000">
        <ele>398.000</ele>
      </trkpt>
      <trkpt lat="46.067090000" lon="4.212260000">
        <ele>397.000</ele>
      </trkpt>
      <trkpt lat="46.066940000" lon="4.212070000">
        <ele>395.000</ele>
      </trkpt>
      <trkpt lat="46.066770000" lon="4.211860000">
        <ele>394.000</ele>
      </trkpt>
      <trkpt lat="46.066640000" lon="4.211690000">
        <ele>393.000</ele>
      </trkpt>
      <trkpt lat="46.066520000" lon="4.211560000">
        <ele>392.000</ele>
      </trkpt>
      <trkpt lat="46.066410000" lon="4.211480000">
        <ele>390.000</ele>
      </trkpt>
      <trkpt lat="46.066350000" lon="4.211450000">
        <ele>390.000</ele>
      </trkpt>
      <trkpt lat="46.066350000" lon="4.211450000">
        <ele>389.000</ele>
      </trkpt>
      <trkpt lat="46.066170000" lon="4.211360000">
        <ele>388.000</ele>
      </trkpt>
      <trkpt lat="46.066110000" lon="4.211320000">
        <ele>387.000</ele>
      </trkpt>
      <trkpt lat="46.065990000" lon="4.211230000">
        <ele>387.000</ele>
      </trkpt>
      <trkpt lat="46.065690000" lon="4.210950000">
        <ele>385.000</ele>
      </trkpt>
      <trkpt lat="46.065320000" lon="4.210590000">
        <ele>384.000</ele>
      </trkpt>
      <trkpt lat="46.065210000" lon="4.210510000">
        <ele>382.000</ele>
      </trkpt>
      <trkpt lat="46.065080000" lon="4.210420000">
        <ele>381.000</ele>
      </trkpt>
      <trkpt lat="46.064950000" lon="4.210370000">
        <ele>380.000</ele>
      </trkpt>
      <trkpt lat="46.064840000" lon="4.210340000">
        <ele>379.000</ele>
      </trkpt>
      <trkpt lat="46.064770000" lon="4.210320000">
        <ele>379.000</ele>
      </trkpt>
      <trkpt lat="46.064650000" lon="4.210330000">
        <ele>378.000</ele>
      </trkpt>
      <trkpt lat="46.064500000" lon="4.210390000">
        <ele>378.000</ele>
      </trkpt>
      <trkpt lat="46.064380000" lon="4.210470000">
        <ele>377.000</ele>
      </trkpt>
      <trkpt lat="46.064280000" lon="4.210520000">
        <ele>376.000</ele>
      </trkpt>
      <trkpt lat="46.064170000" lon="4.210530000">
        <ele>376.000</ele>
      </trkpt>
      <trkpt lat="46.064060000" lon="4.210530000">
        <ele>375.000</ele>
      </trkpt>
      <trkpt lat="46.063960000" lon="4.210520000">
        <ele>375.000</ele>
      </trkpt>
      <trkpt lat="46.063820000" lon="4.210480000">
        <ele>374.000</ele>
      </trkpt>
      <trkpt lat="46.063720000" lon="4.210420000">
        <ele>374.000</ele>
      </trkpt>
      <trkpt lat="46.063640000" lon="4.210370000">
        <ele>374.000</ele>
      </trkpt>
      <trkpt lat="46.063610000" lon="4.210280000">
        <ele>373.000</ele>
      </trkpt>
      <trkpt lat="46.063590000" lon="4.210170000">
        <ele>373.000</ele>
      </trkpt>
      <trkpt lat="46.063630000" lon="4.210060000">
        <ele>373.000</ele>
      </trkpt>
      <trkpt lat="46.063740000" lon="4.209960000">
        <ele>373.000</ele>
      </trkpt>
      <trkpt lat="46.063950000" lon="4.209830000">
        <ele>373.000</ele>
      </trkpt>
      <trkpt lat="46.064090000" lon="4.209740000">
        <ele>373.000</ele>
      </trkpt>
      <trkpt lat="46.064150000" lon="4.209650000">
        <ele>373.000</ele>
      </trkpt>
      <trkpt lat="46.064150000" lon="4.209530000">
        <ele>372.000</ele>
      </trkpt>
      <trkpt lat="46.064120000" lon="4.209390000">
        <ele>372.000</ele>
      </trkpt>
      <trkpt lat="46.064040000" lon="4.209320000">
        <ele>372.000</ele>
      </trkpt>
      <trkpt lat="46.063880000" lon="4.209250000">
        <ele>372.000</ele>
      </trkpt>
      <trkpt lat="46.063610000" lon="4.209240000">
        <ele>372.000</ele>
      </trkpt>
      <trkpt lat="46.063250000" lon="4.209270000">
        <ele>371.000</ele>
      </trkpt>
      <trkpt lat="46.062930000" lon="4.209240000">
        <ele>369.000</ele>
      </trkpt>
      <trkpt lat="46.062560000" lon="4.209200000">
        <ele>368.000</ele>
      </trkpt>
      <trkpt lat="46.062370000" lon="4.209180000">
        <ele>366.000</ele>
      </trkpt>
      <trkpt lat="46.061420000" lon="4.209070000">
        <ele>362.000</ele>
      </trkpt>
      <trkpt lat="46.061290000" lon="4.209010000">
        <ele>360.000</ele>
      </trkpt>
      <trkpt lat="46.061160000" lon="4.208950000">
        <ele>358.000</ele>
      </trkpt>
      <trkpt lat="46.061080000" lon="4.208860000">
        <ele>356.000</ele>
      </trkpt>
      <trkpt lat="46.061010000" lon="4.208760000">
        <ele>355.000</ele>
      </trkpt>
      <trkpt lat="46.060970000" lon="4.208600000">
        <ele>354.000</ele>
      </trkpt>
      <trkpt lat="46.060940000" lon="4.208360000">
        <ele>353.000</ele>
      </trkpt>
      <trkpt lat="46.060900000" lon="4.208200000">
        <ele>352.000</ele>
      </trkpt>
      <trkpt lat="46.060840000" lon="4.208030000">
        <ele>352.000</ele>
      </trkpt>
      <trkpt lat="46.060770000" lon="4.207900000">
        <ele>351.000</ele>
      </trkpt>
      <trkpt lat="46.060650000" lon="4.207760000">
        <ele>350.000</ele>
      </trkpt>
      <trkpt lat="46.060470000" lon="4.207580000">
        <ele>349.000</ele>
      </trkpt>
      <trkpt lat="46.060390000" lon="4.207460000">
        <ele>348.000</ele>
      </trkpt>
      <trkpt lat="46.060320000" lon="4.207320000">
        <ele>348.000</ele>
      </trkpt>
      <trkpt lat="46.060280000" lon="4.207160000">
        <ele>347.000</ele>
      </trkpt>
      <trkpt lat="46.060270000" lon="4.207000000">
        <ele>346.000</ele>
      </trkpt>
      <trkpt lat="46.060300000" lon="4.206900000">
        <ele>346.000</ele>
      </trkpt>
      <trkpt lat="46.060320000" lon="4.206780000">
        <ele>346.000</ele>
      </trkpt>
      <trkpt lat="46.060430000" lon="4.206540000">
        <ele>346.000</ele>
      </trkpt>
      <trkpt lat="46.060470000" lon="4.206360000">
        <ele>345.000</ele>
      </trkpt>
      <trkpt lat="46.060470000" lon="4.206220000">
        <ele>345.000</ele>
      </trkpt>
      <trkpt lat="46.060430000" lon="4.206080000">
        <ele>345.000</ele>
      </trkpt>
      <trkpt lat="46.060350000" lon="4.205980000">
        <ele>345.000</ele>
      </trkpt>
      <trkpt lat="46.060230000" lon="4.205970000">
        <ele>345.000</ele>
      </trkpt>
      <trkpt lat="46.060120000" lon="4.206030000">
        <ele>345.000</ele>
      </trkpt>
      <trkpt lat="46.059840000" lon="4.206180000">
        <ele>344.000</ele>
      </trkpt>
      <trkpt lat="46.059690000" lon="4.206200000">
        <ele>344.000</ele>
      </trkpt>
      <trkpt lat="46.059580000" lon="4.206160000">
        <ele>344.000</ele>
      </trkpt>
      <trkpt lat="46.059450000" lon="4.206080000">
        <ele>344.000</ele>
      </trkpt>
      <trkpt lat="46.059280000" lon="4.205910000">
        <ele>344.000</ele>
      </trkpt>
      <trkpt lat="46.059160000" lon="4.205710000">
        <ele>344.000</ele>
      </trkpt>
      <trkpt lat="46.059060000" lon="4.205570000">
        <ele>344.000</ele>
      </trkpt>
      <trkpt lat="46.058990000" lon="4.205480000">
        <ele>344.000</ele>
      </trkpt>
      <trkpt lat="46.058890000" lon="4.205400000">
        <ele>344.000</ele>
      </trkpt>
      <trkpt lat="46.058710000" lon="4.205270000">
        <ele>344.000</ele>
      </trkpt>
      <trkpt lat="46.058600000" lon="4.205190000">
        <ele>344.000</ele>
      </trkpt>
      <trkpt lat="46.058440000" lon="4.205100000">
        <ele>344.000</ele>
      </trkpt>
      <trkpt lat="46.058370000" lon="4.205090000">
        <ele>344.000</ele>
      </trkpt>
      <trkpt lat="46.058240000" lon="4.205110000">
        <ele>344.000</ele>
      </trkpt>
      <trkpt lat="46.058110000" lon="4.205160000">
        <ele>344.000</ele>
      </trkpt>
      <trkpt lat="46.058010000" lon="4.205150000">
        <ele>344.000</ele>
      </trkpt>
      <trkpt lat="46.057930000" lon="4.205100000">
        <ele>344.000</ele>
      </trkpt>
      <trkpt lat="46.057860000" lon="4.205000000">
        <ele>344.000</ele>
      </trkpt>
      <trkpt lat="46.057780000" lon="4.204790000">
        <ele>345.000</ele>
      </trkpt>
      <trkpt lat="46.057660000" lon="4.204160000">
        <ele>345.000</ele>
      </trkpt>
      <trkpt lat="46.057600000" lon="4.203950000">
        <ele>345.000</ele>
      </trkpt>
      <trkpt lat="46.057360000" lon="4.203390000">
        <ele>345.000</ele>
      </trkpt>
      <trkpt lat="46.057120000" lon="4.202890000">
        <ele>346.000</ele>
      </trkpt>
      <trkpt lat="46.056890000" lon="4.202420000">
        <ele>346.000</ele>
      </trkpt>
      <trkpt lat="46.056740000" lon="4.202070000">
        <ele>347.000</ele>
      </trkpt>
      <trkpt lat="46.056620000" lon="4.201770000">
        <ele>346.000</ele>
      </trkpt>
      <trkpt lat="46.056540000" lon="4.201550000">
        <ele>346.000</ele>
      </trkpt>
      <trkpt lat="46.056470000" lon="4.201280000">
        <ele>346.000</ele>
      </trkpt>
      <trkpt lat="46.056400000" lon="4.200970000">
        <ele>345.000</ele>
      </trkpt>
      <trkpt lat="46.056350000" lon="4.200790000">
        <ele>345.000</ele>
      </trkpt>
      <trkpt lat="46.056270000" lon="4.200680000">
        <ele>344.000</ele>
      </trkpt>
      <trkpt lat="46.056140000" lon="4.200590000">
        <ele>344.000</ele>
      </trkpt>
      <trkpt lat="46.055950000" lon="4.200570000">
        <ele>343.000</ele>
      </trkpt>
      <trkpt lat="46.055730000" lon="4.200600000">
        <ele>343.000</ele>
      </trkpt>
      <trkpt lat="46.055620000" lon="4.200650000">
        <ele>342.000</ele>
      </trkpt>
      <trkpt lat="46.055510000" lon="4.200750000">
        <ele>343.000</ele>
      </trkpt>
      <trkpt lat="46.055390000" lon="4.200930000">
        <ele>343.000</ele>
      </trkpt>
      <trkpt lat="46.055120000" lon="4.201510000">
        <ele>345.000</ele>
      </trkpt>
      <trkpt lat="46.054930000" lon="4.201840000">
        <ele>346.000</ele>
      </trkpt>
      <trkpt lat="46.054780000" lon="4.202000000">
        <ele>348.000</ele>
      </trkpt>
      <trkpt lat="46.054510000" lon="4.202290000">
        <ele>349.000</ele>
      </trkpt>
      <trkpt lat="46.054410000" lon="4.202440000">
        <ele>351.000</ele>
      </trkpt>
      <trkpt lat="46.054210000" lon="4.203110000">
        <ele>353.000</ele>
      </trkpt>
      <trkpt lat="46.054130000" lon="4.203390000">
        <ele>355.000</ele>
      </trkpt>
      <trkpt lat="46.054130000" lon="4.203390000">
        <ele>356.000</ele>
      </trkpt>
      <trkpt lat="46.054020000" lon="4.203760000">
        <ele>357.000</ele>
      </trkpt>
      <trkpt lat="46.054010000" lon="4.203970000">
        <ele>359.000</ele>
      </trkpt>
      <trkpt lat="46.054080000" lon="4.204120000">
        <ele>360.000</ele>
      </trkpt>
      <trkpt lat="46.054340000" lon="4.204460000">
        <ele>361.000</ele>
      </trkpt>
      <trkpt lat="46.054430000" lon="4.204600000">
        <ele>363.000</ele>
      </trkpt>
      <trkpt lat="46.054520000" lon="4.204800000">
        <ele>364.000</ele>
      </trkpt>
      <trkpt lat="46.054580000" lon="4.205050000">
        <ele>365.000</ele>
      </trkpt>
      <trkpt lat="46.054620000" lon="4.205310000">
        <ele>365.000</ele>
      </trkpt>
      <trkpt lat="46.054650000" lon="4.205590000">
        <ele>366.000</ele>
      </trkpt>
      <trkpt lat="46.054640000" lon="4.205890000">
        <ele>366.000</ele>
      </trkpt>
      <trkpt lat="46.054610000" lon="4.206010000">
        <ele>366.000</ele>
      </trkpt>
      <trkpt lat="46.054540000" lon="4.206090000">
        <ele>367.000</ele>
      </trkpt>
      <trkpt lat="46.054450000" lon="4.206140000">
        <ele>367.000</ele>
      </trkpt>
      <trkpt lat="46.054390000" lon="4.206120000">
        <ele>367.000</ele>
      </trkpt>
      <trkpt lat="46.054360000" lon="4.206110000">
        <ele>367.000</ele>
      </trkpt>
      <trkpt lat="46.054190000" lon="4.206050000">
        <ele>367.000</ele>
      </trkpt>
      <trkpt lat="46.054120000" lon="4.206030000">
        <ele>367.000</ele>
      </trkpt>
      <trkpt lat="46.054060000" lon="4.206030000">
        <ele>367.000</ele>
      </trkpt>
      <trkpt lat="46.053980000" lon="4.206050000">
        <ele>367.000</ele>
      </trkpt>
      <trkpt lat="46.053900000" lon="4.206120000">
        <ele>367.000</ele>
      </trkpt>
      <trkpt lat="46.053820000" lon="4.206320000">
        <ele>367.000</ele>
      </trkpt>
      <trkpt lat="46.053570000" lon="4.207030000">
        <ele>367.000</ele>
      </trkpt>
      <trkpt lat="46.053500000" lon="4.207190000">
        <ele>368.000</ele>
      </trkpt>
      <trkpt lat="46.053430000" lon="4.207350000">
        <ele>368.000</ele>
      </trkpt>
      <trkpt lat="46.053330000" lon="4.207500000">
        <ele>368.000</ele>
      </trkpt>
      <trkpt lat="46.053220000" lon="4.207620000">
        <ele>369.000</ele>
      </trkpt>
      <trkpt lat="46.053100000" lon="4.207710000">
        <ele>369.000</ele>
      </trkpt>
      <trkpt lat="46.052820000" lon="4.207900000">
        <ele>370.000</ele>
      </trkpt>
      <trkpt lat="46.052570000" lon="4.208040000">
        <ele>370.000</ele>
      </trkpt>
      <trkpt lat="46.052400000" lon="4.208130000">
        <ele>371.000</ele>
      </trkpt>
      <trkpt lat="46.052310000" lon="4.208200000">
        <ele>372.000</ele>
      </trkpt>
      <trkpt lat="46.052220000" lon="4.208290000">
        <ele>372.000</ele>
      </trkpt>
      <trkpt lat="46.052010000" lon="4.208650000">
        <ele>373.000</ele>
      </trkpt>
      <trkpt lat="46.051850000" lon="4.208970000">
        <ele>374.000</ele>
      </trkpt>
      <trkpt lat="46.051750000" lon="4.209180000">
        <ele>374.000</ele>
      </trkpt>
      <trkpt lat="46.051720000" lon="4.209350000">
        <ele>375.000</ele>
      </trkpt>
      <trkpt lat="46.051700000" lon="4.209560000">
        <ele>375.000</ele>
      </trkpt>
      <trkpt lat="46.051690000" lon="4.209770000">
        <ele>376.000</ele>
      </trkpt>
      <trkpt lat="46.051700000" lon="4.209930000">
        <ele>376.000</ele>
      </trkpt>
      <trkpt lat="46.051770000" lon="4.210400000">
        <ele>377.000</ele>
      </trkpt>
      <trkpt lat="46.051830000" lon="4.210760000">
        <ele>378.000</ele>
      </trkpt>
      <trkpt lat="46.051910000" lon="4.211070000">
        <ele>378.000</ele>
      </trkpt>
      <trkpt lat="46.052030000" lon="4.211420000">
        <ele>379.000</ele>
      </trkpt>
      <trkpt lat="46.052130000" lon="4.211710000">
        <ele>380.000</ele>
      </trkpt>
      <trkpt lat="46.052150000" lon="4.211890000">
        <ele>380.000</ele>
      </trkpt>
      <trkpt lat="46.052160000" lon="4.212000000">
        <ele>381.000</ele>
      </trkpt>
      <trkpt lat="46.052150000" lon="4.212110000">
        <ele>381.000</ele>
      </trkpt>
      <trkpt lat="46.052120000" lon="4.212200000">
        <ele>382.000</ele>
      </trkpt>
      <trkpt lat="46.052050000" lon="4.212400000">
        <ele>382.000</ele>
      </trkpt>
      <trkpt lat="46.051700000" lon="4.212930000">
        <ele>383.000</ele>
      </trkpt>
      <trkpt lat="46.051380000" lon="4.213370000">
        <ele>384.000</ele>
      </trkpt>
      <trkpt lat="46.051220000" lon="4.213610000">
        <ele>385.000</ele>
      </trkpt>
      <trkpt lat="46.051060000" lon="4.213790000">
        <ele>386.000</ele>
      </trkpt>
      <trkpt lat="46.050910000" lon="4.213890000">
        <ele>387.000</ele>
      </trkpt>
      <trkpt lat="46.050360000" lon="4.214100000">
        <ele>388.000</ele>
      </trkpt>
      <trkpt lat="46.050130000" lon="4.214200000">
        <ele>389.000</ele>
      </trkpt>
      <trkpt lat="46.049920000" lon="4.214310000">
        <ele>389.000</ele>
      </trkpt>
      <trkpt lat="46.049700000" lon="4.214480000">
        <ele>390.000</ele>
      </trkpt>
      <trkpt lat="46.049510000" lon="4.214660000">
        <ele>391.000</ele>
      </trkpt>
      <trkpt lat="46.049410000" lon="4.214780000">
        <ele>392.000</ele>
      </trkpt>
      <trkpt lat="46.049310000" lon="4.214840000">
        <ele>392.000</ele>
      </trkpt>
      <trkpt lat="46.049190000" lon="4.214880000">
        <ele>393.000</ele>
      </trkpt>
      <trkpt lat="46.048850000" lon="4.214970000">
        <ele>394.000</ele>
      </trkpt>
      <trkpt lat="46.048710000" lon="4.215030000">
        <ele>394.000</ele>
      </trkpt>
      <trkpt lat="46.048600000" lon="4.215140000">
        <ele>395.000</ele>
      </trkpt>
      <trkpt lat="46.048420000" lon="4.215430000">
        <ele>396.000</ele>
      </trkpt>
      <trkpt lat="46.048120000" lon="4.215990000">
        <ele>397.000</ele>
      </trkpt>
      <trkpt lat="46.047950000" lon="4.216360000">
        <ele>398.000</ele>
      </trkpt>
      <trkpt lat="46.047860000" lon="4.216650000">
        <ele>399.000</ele>
      </trkpt>
      <trkpt lat="46.047750000" lon="4.217120000">
        <ele>400.000</ele>
      </trkpt>
      <trkpt lat="46.047730000" lon="4.217320000">
        <ele>401.000</ele>
      </trkpt>
      <trkpt lat="46.047710000" lon="4.217530000">
        <ele>401.000</ele>
      </trkpt>
      <trkpt lat="46.047740000" lon="4.217750000">
        <ele>402.000</ele>
      </trkpt>
      <trkpt lat="46.047790000" lon="4.217990000">
        <ele>402.000</ele>
      </trkpt>
      <trkpt lat="46.047900000" lon="4.218300000">
        <ele>403.000</ele>
      </trkpt>
      <trkpt lat="46.048030000" lon="4.218560000">
        <ele>403.000</ele>
      </trkpt>
      <trkpt lat="46.048170000" lon="4.218820000">
        <ele>404.000</ele>
      </trkpt>
      <trkpt lat="46.048260000" lon="4.218990000">
        <ele>405.000</ele>
      </trkpt>
      <trkpt lat="46.048320000" lon="4.219150000">
        <ele>405.000</ele>
      </trkpt>
      <trkpt lat="46.048340000" lon="4.219390000">
        <ele>406.000</ele>
      </trkpt>
      <trkpt lat="46.048310000" lon="4.219550000">
        <ele>406.000</ele>
      </trkpt>
      <trkpt lat="46.048280000" lon="4.219710000">
        <ele>407.000</ele>
      </trkpt>
      <trkpt lat="46.048160000" lon="4.219970000">
        <ele>407.000</ele>
      </trkpt>
      <trkpt lat="46.048140000" lon="4.220010000">
        <ele>407.000</ele>
      </trkpt>
      <trkpt lat="46.048050000" lon="4.220280000">
        <ele>408.000</ele>
      </trkpt>
      <trkpt lat="46.047980000" lon="4.220550000">
        <ele>408.000</ele>
      </trkpt>
      <trkpt lat="46.047900000" lon="4.220860000">
        <ele>409.000</ele>
      </trkpt>
      <trkpt lat="46.047850000" lon="4.220960000">
        <ele>410.000</ele>
      </trkpt>
      <trkpt lat="46.047770000" lon="4.221000000">
        <ele>410.000</ele>
      </trkpt>
      <trkpt lat="46.047670000" lon="4.221000000">
        <ele>410.000</ele>
      </trkpt>
      <trkpt lat="46.047590000" lon="4.220950000">
        <ele>411.000</ele>
      </trkpt>
      <trkpt lat="46.047530000" lon="4.220810000">
        <ele>411.000</ele>
      </trkpt>
      <trkpt lat="46.047430000" lon="4.220560000">
        <ele>411.000</ele>
      </trkpt>
      <trkpt lat="46.047360000" lon="4.220340000">
        <ele>411.000</ele>
      </trkpt>
      <trkpt lat="46.047280000" lon="4.220170000">
        <ele>412.000</ele>
      </trkpt>
      <trkpt lat="46.047130000" lon="4.219940000">
        <ele>412.000</ele>
      </trkpt>
      <trkpt lat="46.046700000" lon="4.219470000">
        <ele>413.000</ele>
      </trkpt>
      <trkpt lat="46.046490000" lon="4.219260000">
        <ele>413.000</ele>
      </trkpt>
      <trkpt lat="46.046390000" lon="4.219170000">
        <ele>414.000</ele>
      </trkpt>
      <trkpt lat="46.046300000" lon="4.219110000">
        <ele>414.000</ele>
      </trkpt>
      <trkpt lat="46.046260000" lon="4.219100000">
        <ele>415.000</ele>
      </trkpt>
      <trkpt lat="46.046170000" lon="4.219050000">
        <ele>415.000</ele>
      </trkpt>
      <trkpt lat="46.046090000" lon="4.219020000">
        <ele>415.000</ele>
      </trkpt>
      <trkpt lat="46.045970000" lon="4.219020000">
        <ele>416.000</ele>
      </trkpt>
      <trkpt lat="46.045810000" lon="4.219060000">
        <ele>416.000</ele>
      </trkpt>
      <trkpt lat="46.045370000" lon="4.219240000">
        <ele>417.000</ele>
      </trkpt>
      <trkpt lat="46.045100000" lon="4.219350000">
        <ele>418.000</ele>
      </trkpt>
      <trkpt lat="46.044990000" lon="4.219470000">
        <ele>419.000</ele>
      </trkpt>
      <trkpt lat="46.044920000" lon="4.219620000">
        <ele>420.000</ele>
      </trkpt>
      <trkpt lat="46.044880000" lon="4.219770000">
        <ele>420.000</ele>
      </trkpt>
      <trkpt lat="46.044840000" lon="4.219940000">
        <ele>421.000</ele>
      </trkpt>
      <trkpt lat="46.044780000" lon="4.220090000">
        <ele>421.000</ele>
      </trkpt>
      <trkpt lat="46.044650000" lon="4.220190000">
        <ele>422.000</ele>
      </trkpt>
      <trkpt lat="46.044540000" lon="4.220210000">
        <ele>422.000</ele>
      </trkpt>
      <trkpt lat="46.044420000" lon="4.220160000">
        <ele>423.000</ele>
      </trkpt>
      <trkpt lat="46.044330000" lon="4.220070000">
        <ele>423.000</ele>
      </trkpt>
      <trkpt lat="46.044060000" lon="4.219780000">
        <ele>424.000</ele>
      </trkpt>
      <trkpt lat="46.043770000" lon="4.219470000">
        <ele>425.000</ele>
      </trkpt>
      <trkpt lat="46.043550000" lon="4.219280000">
        <ele>426.000</ele>
      </trkpt>
      <trkpt lat="46.043260000" lon="4.219020000">
        <ele>427.000</ele>
      </trkpt>
      <trkpt lat="46.042990000" lon="4.218800000">
        <ele>427.000</ele>
      </trkpt>
      <trkpt lat="46.042710000" lon="4.218590000">
        <ele>428.000</ele>
      </trkpt>
      <trkpt lat="46.042600000" lon="4.218500000">
        <ele>428.000</ele>
      </trkpt>
      <trkpt lat="46.042440000" lon="4.218440000">
        <ele>429.000</ele>
      </trkpt>
      <trkpt lat="46.042310000" lon="4.218420000">
        <ele>429.000</ele>
      </trkpt>
      <trkpt lat="46.042190000" lon="4.218430000">
        <ele>429.000</ele>
      </trkpt>
      <trkpt lat="46.042120000" lon="4.218470000">
        <ele>429.000</ele>
      </trkpt>
      <trkpt lat="46.042040000" lon="4.218540000">
        <ele>430.000</ele>
      </trkpt>
      <trkpt lat="46.041720000" lon="4.218970000">
        <ele>430.000</ele>
      </trkpt>
      <trkpt lat="46.041660000" lon="4.219070000">
        <ele>430.000</ele>
      </trkpt>
      <trkpt lat="46.041600000" lon="4.219250000">
        <ele>430.000</ele>
      </trkpt>
      <trkpt lat="46.041580000" lon="4.219410000">
        <ele>431.000</ele>
      </trkpt>
      <trkpt lat="46.041570000" lon="4.219620000">
        <ele>431.000</ele>
      </trkpt>
      <trkpt lat="46.041620000" lon="4.220040000">
        <ele>431.000</ele>
      </trkpt>
      <trkpt lat="46.041630000" lon="4.220210000">
        <ele>431.000</ele>
      </trkpt>
      <trkpt lat="46.041620000" lon="4.220260000">
        <ele>432.000</ele>
      </trkpt>
      <trkpt lat="46.041600000" lon="4.220380000">
        <ele>432.000</ele>
      </trkpt>
      <trkpt lat="46.041560000" lon="4.220490000">
        <ele>432.000</ele>
      </trkpt>
      <trkpt lat="46.041490000" lon="4.220670000">
        <ele>432.000</ele>
      </trkpt>
      <trkpt lat="46.041330000" lon="4.220930000">
        <ele>432.000</ele>
      </trkpt>
      <trkpt lat="46.041200000" lon="4.221170000">
        <ele>433.000</ele>
      </trkpt>
      <trkpt lat="46.041070000" lon="4.221390000">
        <ele>433.000</ele>
      </trkpt>
      <trkpt lat="46.040950000" lon="4.221640000">
        <ele>433.000</ele>
      </trkpt>
      <trkpt lat="46.040850000" lon="4.221870000">
        <ele>433.000</ele>
      </trkpt>
      <trkpt lat="46.040750000" lon="4.222120000">
        <ele>433.000</ele>
      </trkpt>
      <trkpt lat="46.040670000" lon="4.222480000">
        <ele>433.000</ele>
      </trkpt>
      <trkpt lat="46.040630000" lon="4.222740000">
        <ele>433.000</ele>
      </trkpt>
      <trkpt lat="46.040580000" lon="4.223150000">
        <ele>433.000</ele>
      </trkpt>
      <trkpt lat="46.040560000" lon="4.223560000">
        <ele>433.000</ele>
      </trkpt>
      <trkpt lat="46.040460000" lon="4.224050000">
        <ele>433.000</ele>
      </trkpt>
      <trkpt lat="46.040390000" lon="4.224310000">
        <ele>433.000</ele>
      </trkpt>
      <trkpt lat="46.040370000" lon="4.224570000">
        <ele>433.000</ele>
      </trkpt>
      <trkpt lat="46.040400000" lon="4.224960000">
        <ele>433.000</ele>
      </trkpt>
      <trkpt lat="46.040390000" lon="4.225240000">
        <ele>433.000</ele>
      </trkpt>
      <trkpt lat="46.040300000" lon="4.225500000">
        <ele>433.000</ele>
      </trkpt>
      <trkpt lat="46.040030000" lon="4.226070000">
        <ele>433.000</ele>
      </trkpt>
      <trkpt lat="46.039930000" lon="4.226350000">
        <ele>433.000</ele>
      </trkpt>
      <trkpt lat="46.039900000" lon="4.226400000">
        <ele>433.000</ele>
      </trkpt>
      <trkpt lat="46.039790000" lon="4.226710000">
        <ele>433.000</ele>
      </trkpt>
      <trkpt lat="46.039710000" lon="4.226820000">
        <ele>434.000</ele>
      </trkpt>
      <trkpt lat="46.039580000" lon="4.226950000">
        <ele>434.000</ele>
      </trkpt>
      <trkpt lat="46.039480000" lon="4.227020000">
        <ele>435.000</ele>
      </trkpt>
      <trkpt lat="46.039400000" lon="4.227090000">
        <ele>435.000</ele>
      </trkpt>
      <trkpt lat="46.039280000" lon="4.227150000">
        <ele>436.000</ele>
      </trkpt>
      <trkpt lat="46.039160000" lon="4.227280000">
        <ele>436.000</ele>
      </trkpt>
      <trkpt lat="46.039010000" lon="4.227530000">
        <ele>437.000</ele>
      </trkpt>
      <trkpt lat="46.038850000" lon="4.227760000">
        <ele>438.000</ele>
      </trkpt>
      <trkpt lat="46.038710000" lon="4.227950000">
        <ele>439.000</ele>
      </trkpt>
      <trkpt lat="46.038400000" lon="4.228290000">
        <ele>440.000</ele>
      </trkpt>
      <trkpt lat="46.038260000" lon="4.228460000">
        <ele>441.000</ele>
      </trkpt>
      <trkpt lat="46.038080000" lon="4.228660000">
        <ele>442.000</ele>
      </trkpt>
      <trkpt lat="46.038020000" lon="4.228740000">
        <ele>443.000</ele>
      </trkpt>
      <trkpt lat="46.037900000" lon="4.228850000">
        <ele>444.000</ele>
      </trkpt>
      <trkpt lat="46.037620000" lon="4.229070000">
        <ele>445.000</ele>
      </trkpt>
      <trkpt lat="46.037440000" lon="4.229200000">
        <ele>446.000</ele>
      </trkpt>
      <trkpt lat="46.037150000" lon="4.229340000">
        <ele>448.000</ele>
      </trkpt>
      <trkpt lat="46.037060000" lon="4.229400000">
        <ele>449.000</ele>
      </trkpt>
      <trkpt lat="46.036960000" lon="4.229480000">
        <ele>450.000</ele>
      </trkpt>
      <trkpt lat="46.036810000" lon="4.229630000">
        <ele>451.000</ele>
      </trkpt>
      <trkpt lat="46.036680000" lon="4.229820000">
        <ele>452.000</ele>
      </trkpt>
      <trkpt lat="46.036570000" lon="4.230000000">
        <ele>453.000</ele>
      </trkpt>
      <trkpt lat="46.036510000" lon="4.230210000">
        <ele>454.000</ele>
      </trkpt>
      <trkpt lat="46.036410000" lon="4.230600000">
        <ele>455.000</ele>
      </trkpt>
      <trkpt lat="46.036340000" lon="4.230750000">
        <ele>457.000</ele>
      </trkpt>
      <trkpt lat="46.036280000" lon="4.230830000">
        <ele>458.000</ele>
      </trkpt>
      <trkpt lat="46.036180000" lon="4.230910000">
        <ele>459.000</ele>
      </trkpt>
      <trkpt lat="46.035940000" lon="4.231070000">
        <ele>460.000</ele>
      </trkpt>
      <trkpt lat="46.035640000" lon="4.231230000">
        <ele>462.000</ele>
      </trkpt>
      <trkpt lat="46.035510000" lon="4.231320000">
        <ele>464.000</ele>
      </trkpt>
      <trkpt lat="46.035420000" lon="4.231440000">
        <ele>465.000</ele>
      </trkpt>
      <trkpt lat="46.035380000" lon="4.231590000">
        <ele>466.000</ele>
      </trkpt>
      <trkpt lat="46.035400000" lon="4.232290000">
        <ele>468.000</ele>
      </trkpt>
      <trkpt lat="46.035450000" lon="4.233650000">
        <ele>471.000</ele>
      </trkpt>
      <trkpt lat="46.035470000" lon="4.234120000">
        <ele>474.000</ele>
      </trkpt>
      <trkpt lat="46.035460000" lon="4.234260000">
        <ele>476.000</ele>
      </trkpt>
      <trkpt lat="46.035430000" lon="4.234420000">
        <ele>478.000</ele>
      </trkpt>
      <trkpt lat="46.035380000" lon="4.234510000">
        <ele>479.000</ele>
      </trkpt>
      <trkpt lat="46.035300000" lon="4.234610000">
        <ele>480.000</ele>
      </trkpt>
      <trkpt lat="46.035180000" lon="4.234680000">
        <ele>481.000</ele>
      </trkpt>
      <trkpt lat="46.035050000" lon="4.234700000">
        <ele>481.000</ele>
      </trkpt>
      <trkpt lat="46.034900000" lon="4.234700000">
        <ele>482.000</ele>
      </trkpt>
      <trkpt lat="46.034720000" lon="4.234690000">
        <ele>483.000</ele>
      </trkpt>
      <trkpt lat="46.034620000" lon="4.234670000">
        <ele>483.000</ele>
      </trkpt>
      <trkpt lat="46.034510000" lon="4.234600000">
        <ele>484.000</ele>
      </trkpt>
      <trkpt lat="46.034380000" lon="4.234500000">
        <ele>484.000</ele>
      </trkpt>
      <trkpt lat="46.034330000" lon="4.234430000">
        <ele>485.000</ele>
      </trkpt>
      <trkpt lat="46.034250000" lon="4.234400000">
        <ele>485.000</ele>
      </trkpt>
      <trkpt lat="46.034200000" lon="4.234410000">
        <ele>486.000</ele>
      </trkpt>
      <trkpt lat="46.034190000" lon="4.234470000">
        <ele>486.000</ele>
      </trkpt>
      <trkpt lat="46.034160000" lon="4.234510000">
        <ele>486.000</ele>
      </trkpt>
      <trkpt lat="46.034130000" lon="4.234540000">
        <ele>486.000</ele>
      </trkpt>
      <trkpt lat="46.034090000" lon="4.234560000">
        <ele>486.000</ele>
      </trkpt>
      <trkpt lat="46.034050000" lon="4.234550000">
        <ele>487.000</ele>
      </trkpt>
      <trkpt lat="46.033930000" lon="4.234520000">
        <ele>487.000</ele>
      </trkpt>
      <trkpt lat="46.033440000" lon="4.234370000">
        <ele>488.000</ele>
      </trkpt>
      <trkpt lat="46.033100000" lon="4.234270000">
        <ele>488.000</ele>
      </trkpt>
      <trkpt lat="46.033020000" lon="4.234260000">
        <ele>489.000</ele>
      </trkpt>
      <trkpt lat="46.032980000" lon="4.234260000">
        <ele>489.000</ele>
      </trkpt>
      <trkpt lat="46.032910000" lon="4.234250000">
        <ele>489.000</ele>
      </trkpt>
      <trkpt lat="46.032860000" lon="4.234280000">
        <ele>490.000</ele>
      </trkpt>
      <trkpt lat="46.032830000" lon="4.234320000">
        <ele>490.000</ele>
      </trkpt>
      <trkpt lat="46.032780000" lon="4.234390000">
        <ele>490.000</ele>
      </trkpt>
      <trkpt lat="46.032750000" lon="4.234490000">
        <ele>490.000</ele>
      </trkpt>
      <trkpt lat="46.032720000" lon="4.234670000">
        <ele>490.000</ele>
      </trkpt>
      <trkpt lat="46.032720000" lon="4.234730000">
        <ele>490.000</ele>
      </trkpt>
      <trkpt lat="46.032700000" lon="4.235160000">
        <ele>490.000</ele>
      </trkpt>
      <trkpt lat="46.032700000" lon="4.235260000">
        <ele>490.000</ele>
      </trkpt>
      <trkpt lat="46.032650000" lon="4.236010000">
        <ele>490.000</ele>
      </trkpt>
      <trkpt lat="46.032640000" lon="4.236190000">
        <ele>490.000</ele>
      </trkpt>
      <trkpt lat="46.032620000" lon="4.236400000">
        <ele>490.000</ele>
      </trkpt>
      <trkpt lat="46.032620000" lon="4.236570000">
        <ele>489.000</ele>
      </trkpt>
      <trkpt lat="46.032630000" lon="4.236700000">
        <ele>489.000</ele>
      </trkpt>
      <trkpt lat="46.032650000" lon="4.236790000">
        <ele>489.000</ele>
      </trkpt>
      <trkpt lat="46.032680000" lon="4.236900000">
        <ele>488.000</ele>
      </trkpt>
      <trkpt lat="46.032860000" lon="4.237270000">
        <ele>487.000</ele>
      </trkpt>
      <trkpt lat="46.032950000" lon="4.237470000">
        <ele>487.000</ele>
      </trkpt>
      <trkpt lat="46.032970000" lon="4.237510000">
        <ele>486.000</ele>
      </trkpt>
      <trkpt lat="46.033020000" lon="4.237610000">
        <ele>486.000</ele>
      </trkpt>
      <trkpt lat="46.033170000" lon="4.237920000">
        <ele>485.000</ele>
      </trkpt>
      <trkpt lat="46.033280000" lon="4.238160000">
        <ele>484.000</ele>
      </trkpt>
      <trkpt lat="46.033610000" lon="4.238850000">
        <ele>482.000</ele>
      </trkpt>
      <trkpt lat="46.033860000" lon="4.239380000">
        <ele>481.000</ele>
      </trkpt>
      <trkpt lat="46.033990000" lon="4.239660000">
        <ele>479.000</ele>
      </trkpt>
      <trkpt lat="46.033990000" lon="4.239660000">
        <ele>478.000</ele>
      </trkpt>
      <trkpt lat="46.033990000" lon="4.239660000">
        <ele>478.000</ele>
      </trkpt>
      <trkpt lat="46.034190000" lon="4.240070000">
        <ele>477.000</ele>
      </trkpt>
      <trkpt lat="46.034380000" lon="4.240470000">
        <ele>476.000</ele>
      </trkpt>
      <trkpt lat="46.034480000" lon="4.240770000">
        <ele>475.000</ele>
      </trkpt>
      <trkpt lat="46.034550000" lon="4.241120000">
        <ele>474.000</ele>
      </trkpt>
      <trkpt lat="46.034580000" lon="4.241460000">
        <ele>473.000</ele>
      </trkpt>
      <trkpt lat="46.034580000" lon="4.241710000">
        <ele>473.000</ele>
      </trkpt>
      <trkpt lat="46.034570000" lon="4.241950000">
        <ele>472.000</ele>
      </trkpt>
      <trkpt lat="46.034520000" lon="4.242260000">
        <ele>472.000</ele>
      </trkpt>
      <trkpt lat="46.034470000" lon="4.242450000">
        <ele>472.000</ele>
      </trkpt>
      <trkpt lat="46.034380000" lon="4.242750000">
        <ele>472.000</ele>
      </trkpt>
      <trkpt lat="46.034260000" lon="4.243180000">
        <ele>472.000</ele>
      </trkpt>
      <trkpt lat="46.034160000" lon="4.243360000">
        <ele>472.000</ele>
      </trkpt>
      <trkpt lat="46.034070000" lon="4.243470000">
        <ele>472.000</ele>
      </trkpt>
      <trkpt lat="46.033900000" lon="4.243580000">
        <ele>472.000</ele>
      </trkpt>
      <trkpt lat="46.033880000" lon="4.243520000">
        <ele>472.000</ele>
      </trkpt>
      <trkpt lat="46.033840000" lon="4.243480000">
        <ele>472.000</ele>
      </trkpt>
      <trkpt lat="46.033800000" lon="4.243450000">
        <ele>472.000</ele>
      </trkpt>
      <trkpt lat="46.033750000" lon="4.243440000">
        <ele>472.000</ele>
      </trkpt>
      <trkpt lat="46.033700000" lon="4.243460000">
        <ele>472.000</ele>
      </trkpt>
      <trkpt lat="46.033620000" lon="4.243050000">
        <ele>471.000</ele>
      </trkpt>
      <trkpt lat="46.033500000" lon="4.242650000">
        <ele>470.000</ele>
      </trkpt>
      <trkpt lat="46.033400000" lon="4.242370000">
        <ele>468.000</ele>
      </trkpt>
      <trkpt lat="46.033260000" lon="4.242070000">
        <ele>467.000</ele>
      </trkpt>
      <trkpt lat="46.033110000" lon="4.241820000">
        <ele>466.000</ele>
      </trkpt>
      <trkpt lat="46.032970000" lon="4.241610000">
        <ele>464.000</ele>
      </trkpt>
      <trkpt lat="46.032790000" lon="4.241410000">
        <ele>463.000</ele>
      </trkpt>
      <trkpt lat="46.032590000" lon="4.241230000">
        <ele>462.000</ele>
      </trkpt>
      <trkpt lat="46.032370000" lon="4.241080000">
        <ele>462.000</ele>
      </trkpt>
      <trkpt lat="46.032120000" lon="4.240960000">
        <ele>462.000</ele>
      </trkpt>
      <trkpt lat="46.031810000" lon="4.240870000">
        <ele>462.000</ele>
      </trkpt>
      <trkpt lat="46.031600000" lon="4.240830000">
        <ele>462.000</ele>
      </trkpt>
      <trkpt lat="46.030950000" lon="4.240780000">
        <ele>462.000</ele>
      </trkpt>
      <trkpt lat="46.030690000" lon="4.240750000">
        <ele>462.000</ele>
      </trkpt>
      <trkpt lat="46.030390000" lon="4.240670000">
        <ele>461.000</ele>
      </trkpt>
      <trkpt lat="46.030140000" lon="4.240550000">
        <ele>460.000</ele>
      </trkpt>
      <trkpt lat="46.029930000" lon="4.240400000">
        <ele>459.000</ele>
      </trkpt>
      <trkpt lat="46.029700000" lon="4.240190000">
        <ele>458.000</ele>
      </trkpt>
      <trkpt lat="46.029470000" lon="4.239930000">
        <ele>457.000</ele>
      </trkpt>
      <trkpt lat="46.029280000" lon="4.239640000">
        <ele>455.000</ele>
      </trkpt>
      <trkpt lat="46.029130000" lon="4.239340000">
        <ele>454.000</ele>
      </trkpt>
      <trkpt lat="46.029120000" lon="4.239310000">
        <ele>453.000</ele>
      </trkpt>
      <trkpt lat="46.029120000" lon="4.239310000">
        <ele>453.000</ele>
      </trkpt>
      <trkpt lat="46.028970000" lon="4.238910000">
        <ele>452.000</ele>
      </trkpt>
      <trkpt lat="46.028510000" lon="4.237420000">
        <ele>451.000</ele>
      </trkpt>
      <trkpt lat="46.028180000" lon="4.236320000">
        <ele>449.000</ele>
      </trkpt>
      <trkpt lat="46.028070000" lon="4.235900000">
        <ele>448.000</ele>
      </trkpt>
      <trkpt lat="46.028000000" lon="4.235510000">
        <ele>447.000</ele>
      </trkpt>
      <trkpt lat="46.027950000" lon="4.235080000">
        <ele>446.000</ele>
      </trkpt>
      <trkpt lat="46.027920000" lon="4.234650000">
        <ele>445.000</ele>
      </trkpt>
      <trkpt lat="46.027940000" lon="4.233550000">
        <ele>444.000</ele>
      </trkpt>
      <trkpt lat="46.027960000" lon="4.232620000">
        <ele>443.000</ele>
      </trkpt>
      <trkpt lat="46.028000000" lon="4.232220000">
        <ele>443.000</ele>
      </trkpt>
      <trkpt lat="46.028060000" lon="4.231820000">
        <ele>442.000</ele>
      </trkpt>
      <trkpt lat="46.028150000" lon="4.231430000">
        <ele>441.000</ele>
      </trkpt>
      <trkpt lat="46.028270000" lon="4.231090000">
        <ele>441.000</ele>
      </trkpt>
      <trkpt lat="46.028400000" lon="4.230770000">
        <ele>440.000</ele>
      </trkpt>
      <trkpt lat="46.028560000" lon="4.230450000">
        <ele>440.000</ele>
      </trkpt>
      <trkpt lat="46.028920000" lon="4.229880000">
        <ele>441.000</ele>
      </trkpt>
      <trkpt lat="46.029750000" lon="4.228670000">
        <ele>442.000</ele>
      </trkpt>
      <trkpt lat="46.030490000" lon="4.227540000">
        <ele>444.000</ele>
      </trkpt>
      <trkpt lat="46.031210000" lon="4.226470000">
        <ele>447.000</ele>
      </trkpt>
      <trkpt lat="46.032060000" lon="4.225270000">
        <ele>447.000</ele>
      </trkpt>
      <trkpt lat="46.032220000" lon="4.225010000">
        <ele>447.000</ele>
      </trkpt>
      <trkpt lat="46.032380000" lon="4.224760000">
        <ele>447.000</ele>
      </trkpt>
      <trkpt lat="46.032520000" lon="4.224460000">
        <ele>446.000</ele>
      </trkpt>
      <trkpt lat="46.032570000" lon="4.224480000">
        <ele>446.000</ele>
      </trkpt>
      <trkpt lat="46.032620000" lon="4.224480000">
        <ele>446.000</ele>
      </trkpt>
      <trkpt lat="46.032670000" lon="4.224460000">
        <ele>446.000</ele>
      </trkpt>
      <trkpt lat="46.032710000" lon="4.224420000">
        <ele>446.000</ele>
      </trkpt>
      <trkpt lat="46.032740000" lon="4.224360000">
        <ele>446.000</ele>
      </trkpt>
      <trkpt lat="46.032760000" lon="4.224290000">
        <ele>446.000</ele>
      </trkpt>
      <trkpt lat="46.032760000" lon="4.224210000">
        <ele>446.000</ele>
      </trkpt>
      <trkpt lat="46.032750000" lon="4.224140000">
        <ele>447.000</ele>
      </trkpt>
      <trkpt lat="46.032720000" lon="4.224080000">
        <ele>447.000</ele>
      </trkpt>
      <trkpt lat="46.032670000" lon="4.224030000">
        <ele>447.000</ele>
      </trkpt>
      <trkpt lat="46.032780000" lon="4.223650000">
        <ele>447.000</ele>
      </trkpt>
      <trkpt lat="46.032850000" lon="4.223340000">
        <ele>448.000</ele>
      </trkpt>
      <trkpt lat="46.032900000" lon="4.223040000">
        <ele>448.000</ele>
      </trkpt>
      <trkpt lat="46.032930000" lon="4.222640000">
        <ele>449.000</ele>
      </trkpt>
      <trkpt lat="46.032930000" lon="4.222190000">
        <ele>450.000</ele>
      </trkpt>
      <trkpt lat="46.032860000" lon="4.221150000">
        <ele>448.000</ele>
      </trkpt>
      <trkpt lat="46.032850000" lon="4.221060000">
        <ele>447.000</ele>
      </trkpt>
      <trkpt lat="46.032800000" lon="4.220300000">
        <ele>445.000</ele>
      </trkpt>
      <trkpt lat="46.032790000" lon="4.220090000">
        <ele>443.000</ele>
      </trkpt>
      <trkpt lat="46.032800000" lon="4.219820000">
        <ele>442.000</ele>
      </trkpt>
      <trkpt lat="46.032820000" lon="4.219500000">
        <ele>440.000</ele>
      </trkpt>
      <trkpt lat="46.032900000" lon="4.219110000">
        <ele>439.000</ele>
      </trkpt>
      <trkpt lat="46.032950000" lon="4.218840000">
        <ele>438.000</ele>
      </trkpt>
      <trkpt lat="46.033030000" lon="4.218590000">
        <ele>437.000</ele>
      </trkpt>
      <trkpt lat="46.033090000" lon="4.218380000">
        <ele>436.000</ele>
      </trkpt>
      <trkpt lat="46.033320000" lon="4.217720000">
        <ele>435.000</ele>
      </trkpt>
      <trkpt lat="46.033520000" lon="4.217130000">
        <ele>435.000</ele>
      </trkpt>
      <trkpt lat="46.033600000" lon="4.216850000">
        <ele>434.000</ele>
      </trkpt>
      <trkpt lat="46.033640000" lon="4.216490000">
        <ele>433.000</ele>
      </trkpt>
      <trkpt lat="46.033660000" lon="4.216040000">
        <ele>432.000</ele>
      </trkpt>
      <trkpt lat="46.033630000" lon="4.215190000">
        <ele>430.000</ele>
      </trkpt>
      <trkpt lat="46.033590000" lon="4.214350000">
        <ele>427.000</ele>
      </trkpt>
      <trkpt lat="46.033550000" lon="4.213810000">
        <ele>424.000</ele>
      </trkpt>
      <trkpt lat="46.033530000" lon="4.213540000">
        <ele>423.000</ele>
      </trkpt>
      <trkpt lat="46.033530000" lon="4.213000000">
        <ele>421.000</ele>
      </trkpt>
      <trkpt lat="46.033540000" lon="4.212670000">
        <ele>419.000</ele>
      </trkpt>
      <trkpt lat="46.033560000" lon="4.212400000">
        <ele>418.000</ele>
      </trkpt>
      <trkpt lat="46.033630000" lon="4.212040000">
        <ele>417.000</ele>
      </trkpt>
      <trkpt lat="46.033730000" lon="4.211720000">
        <ele>416.000</ele>
      </trkpt>
      <trkpt lat="46.033840000" lon="4.211450000">
        <ele>414.000</ele>
      </trkpt>
      <trkpt lat="46.033970000" lon="4.211230000">
        <ele>413.000</ele>
      </trkpt>
      <trkpt lat="46.034110000" lon="4.211020000">
        <ele>413.000</ele>
      </trkpt>
      <trkpt lat="46.034290000" lon="4.210800000">
        <ele>412.000</ele>
      </trkpt>
      <trkpt lat="46.035430000" lon="4.209540000">
        <ele>410.000</ele>
      </trkpt>
      <trkpt lat="46.035960000" lon="4.208980000">
        <ele>408.000</ele>
      </trkpt>
      <trkpt lat="46.036120000" lon="4.208760000">
        <ele>406.000</ele>
      </trkpt>
      <trkpt lat="46.036210000" lon="4.208600000">
        <ele>405.000</ele>
      </trkpt>
      <trkpt lat="46.036420000" lon="4.208180000">
        <ele>404.000</ele>
      </trkpt>
      <trkpt lat="46.036530000" lon="4.207690000">
        <ele>403.000</ele>
      </trkpt>
      <trkpt lat="46.036590000" lon="4.207300000">
        <ele>402.000</ele>
      </trkpt>
      <trkpt lat="46.036590000" lon="4.206930000">
        <ele>401.000</ele>
      </trkpt>
      <trkpt lat="46.036560000" lon="4.206610000">
        <ele>400.000</ele>
      </trkpt>
      <trkpt lat="46.036400000" lon="4.205660000">
        <ele>398.000</ele>
      </trkpt>
      <trkpt lat="46.036390000" lon="4.205620000">
        <ele>396.000</ele>
      </trkpt>
      <trkpt lat="46.036090000" lon="4.204070000">
        <ele>393.000</ele>
      </trkpt>
      <trkpt lat="46.035940000" lon="4.203450000">
        <ele>390.000</ele>
      </trkpt>
      <trkpt lat="46.035920000" lon="4.203360000">
        <ele>388.000</ele>
      </trkpt>
      <trkpt lat="46.035840000" lon="4.203110000">
        <ele>387.000</ele>
      </trkpt>
      <trkpt lat="46.035610000" lon="4.202500000">
        <ele>385.000</ele>
      </trkpt>
      <trkpt lat="46.035310000" lon="4.201710000">
        <ele>383.000</ele>
      </trkpt>
      <trkpt lat="46.034960000" lon="4.200800000">
        <ele>381.000</ele>
      </trkpt>
      <trkpt lat="46.034680000" lon="4.200160000">
        <ele>378.000</ele>
      </trkpt>
      <trkpt lat="46.034330000" lon="4.199510000">
        <ele>376.000</ele>
      </trkpt>
      <trkpt lat="46.033910000" lon="4.198610000">
        <ele>375.000</ele>
      </trkpt>
      <trkpt lat="46.033170000" lon="4.196900000">
        <ele>373.000</ele>
      </trkpt>
      <trkpt lat="46.033100000" lon="4.196720000">
        <ele>371.000</ele>
      </trkpt>
      <trkpt lat="46.032980000" lon="4.196450000">
        <ele>370.000</ele>
      </trkpt>
      <trkpt lat="46.032850000" lon="4.196090000">
        <ele>369.000</ele>
      </trkpt>
      <trkpt lat="46.032760000" lon="4.195820000">
        <ele>367.000</ele>
      </trkpt>
      <trkpt lat="46.032680000" lon="4.195420000">
        <ele>366.000</ele>
      </trkpt>
      <trkpt lat="46.032460000" lon="4.194090000">
        <ele>364.000</ele>
      </trkpt>
      <trkpt lat="46.032340000" lon="4.193310000">
        <ele>363.000</ele>
      </trkpt>
      <trkpt lat="46.032070000" lon="4.191620000">
        <ele>361.000</ele>
      </trkpt>
      <trkpt lat="46.031970000" lon="4.190910000">
        <ele>359.000</ele>
      </trkpt>
      <trkpt lat="46.031780000" lon="4.189730000">
        <ele>358.000</ele>
      </trkpt>
      <trkpt lat="46.031760000" lon="4.189470000">
        <ele>356.000</ele>
      </trkpt>
      <trkpt lat="46.031750000" lon="4.189390000">
        <ele>355.000</ele>
      </trkpt>
      <trkpt lat="46.031740000" lon="4.189030000">
        <ele>354.000</ele>
      </trkpt>
      <trkpt lat="46.031760000" lon="4.188720000">
        <ele>353.000</ele>
      </trkpt>
      <trkpt lat="46.031800000" lon="4.188460000">
        <ele>352.000</ele>
      </trkpt>
      <trkpt lat="46.031900000" lon="4.187990000">
        <ele>351.000</ele>
      </trkpt>
      <trkpt lat="46.032120000" lon="4.187180000">
        <ele>350.000</ele>
      </trkpt>
      <trkpt lat="46.032250000" lon="4.186710000">
        <ele>349.000</ele>
      </trkpt>
      <trkpt lat="46.032420000" lon="4.186180000">
        <ele>348.000</ele>
      </trkpt>
      <trkpt lat="46.032630000" lon="4.185590000">
        <ele>346.000</ele>
      </trkpt>
      <trkpt lat="46.033150000" lon="4.184290000">
        <ele>345.000</ele>
      </trkpt>
      <trkpt lat="46.033480000" lon="4.183520000">
        <ele>343.000</ele>
      </trkpt>
      <trkpt lat="46.033750000" lon="4.182840000">
        <ele>342.000</ele>
      </trkpt>
      <trkpt lat="46.035050000" lon="4.179710000">
        <ele>341.000</ele>
      </trkpt>
      <trkpt lat="46.035680000" lon="4.178160000">
        <ele>339.000</ele>
      </trkpt>
      <trkpt lat="46.036030000" lon="4.177310000">
        <ele>336.000</ele>
      </trkpt>
      <trkpt lat="46.036590000" lon="4.176090000">
        <ele>336.000</ele>
      </trkpt>
      <trkpt lat="46.037070000" lon="4.175080000">
        <ele>336.000</ele>
      </trkpt>
      <trkpt lat="46.037360000" lon="4.174480000">
        <ele>336.000</ele>
      </trkpt>
      <trkpt lat="46.037480000" lon="4.174190000">
        <ele>336.000</ele>
      </trkpt>
      <trkpt lat="46.037590000" lon="4.173910000">
        <ele>336.000</ele>
      </trkpt>
      <trkpt lat="46.037660000" lon="4.173620000">
        <ele>336.000</ele>
      </trkpt>
      <trkpt lat="46.037730000" lon="4.173280000">
        <ele>335.000</ele>
      </trkpt>
      <trkpt lat="46.037750000" lon="4.172930000">
        <ele>335.000</ele>
      </trkpt>
      <trkpt lat="46.037750000" lon="4.172570000">
        <ele>335.000</ele>
      </trkpt>
      <trkpt lat="46.037710000" lon="4.172190000">
        <ele>334.000</ele>
      </trkpt>
      <trkpt lat="46.037540000" lon="4.170930000">
        <ele>333.000</ele>
      </trkpt>
      <trkpt lat="46.037520000" lon="4.170520000">
        <ele>332.000</ele>
      </trkpt>
      <trkpt lat="46.037520000" lon="4.170240000">
        <ele>331.000</ele>
      </trkpt>
      <trkpt lat="46.037570000" lon="4.169810000">
        <ele>330.000</ele>
      </trkpt>
      <trkpt lat="46.037630000" lon="4.169510000">
        <ele>329.000</ele>
      </trkpt>
      <trkpt lat="46.037710000" lon="4.169260000">
        <ele>328.000</ele>
      </trkpt>
      <trkpt lat="46.037840000" lon="4.168960000">
        <ele>328.000</ele>
      </trkpt>
      <trkpt lat="46.038220000" lon="4.168290000">
        <ele>327.000</ele>
      </trkpt>
      <trkpt lat="46.038630000" lon="4.167600000">
        <ele>326.000</ele>
      </trkpt>
      <trkpt lat="46.038830000" lon="4.167230000">
        <ele>325.000</ele>
      </trkpt>
      <trkpt lat="46.038990000" lon="4.166910000">
        <ele>325.000</ele>
      </trkpt>
      <trkpt lat="46.039110000" lon="4.166570000">
        <ele>325.000</ele>
      </trkpt>
      <trkpt lat="46.039190000" lon="4.166220000">
        <ele>324.000</ele>
      </trkpt>
      <trkpt lat="46.039230000" lon="4.165830000">
        <ele>324.000</ele>
      </trkpt>
      <trkpt lat="46.039240000" lon="4.165470000">
        <ele>324.000</ele>
      </trkpt>
      <trkpt lat="46.039240000" lon="4.165330000">
        <ele>324.000</ele>
      </trkpt>
      <trkpt lat="46.039220000" lon="4.164100000">
        <ele>323.000</ele>
      </trkpt>
      <trkpt lat="46.039210000" lon="4.163640000">
        <ele>323.000</ele>
      </trkpt>
      <trkpt lat="46.039220000" lon="4.163180000">
        <ele>322.000</ele>
      </trkpt>
      <trkpt lat="46.039230000" lon="4.162930000">
        <ele>322.000</ele>
      </trkpt>
      <trkpt lat="46.039270000" lon="4.162670000">
        <ele>322.000</ele>
      </trkpt>
      <trkpt lat="46.039340000" lon="4.162350000">
        <ele>322.000</ele>
      </trkpt>
      <trkpt lat="46.039440000" lon="4.162040000">
        <ele>321.000</ele>
      </trkpt>
      <trkpt lat="46.039650000" lon="4.161590000">
        <ele>321.000</ele>
      </trkpt>
      <trkpt lat="46.040160000" lon="4.160610000">
        <ele>321.000</ele>
      </trkpt>
      <trkpt lat="46.040440000" lon="4.160070000">
        <ele>320.000</ele>
      </trkpt>
      <trkpt lat="46.040640000" lon="4.159590000">
        <ele>320.000</ele>
      </trkpt>
      <trkpt lat="46.040740000" lon="4.159300000">
        <ele>319.000</ele>
      </trkpt>
      <trkpt lat="46.040810000" lon="4.159040000">
        <ele>319.000</ele>
      </trkpt>
      <trkpt lat="46.040880000" lon="4.158700000">
        <ele>318.000</ele>
      </trkpt>
      <trkpt lat="46.040950000" lon="4.158310000">
        <ele>318.000</ele>
      </trkpt>
      <trkpt lat="46.041150000" lon="4.156970000">
        <ele>317.000</ele>
      </trkpt>
      <trkpt lat="46.041230000" lon="4.156430000">
        <ele>316.000</ele>
      </trkpt>
      <trkpt lat="46.041270000" lon="4.156020000">
        <ele>316.000</ele>
      </trkpt>
      <trkpt lat="46.041290000" lon="4.155720000">
        <ele>315.000</ele>
      </trkpt>
      <trkpt lat="46.041300000" lon="4.155340000">
        <ele>315.000</ele>
      </trkpt>
      <trkpt lat="46.041270000" lon="4.154800000">
        <ele>315.000</ele>
      </trkpt>
      <trkpt lat="46.041230000" lon="4.154440000">
        <ele>315.000</ele>
      </trkpt>
      <trkpt lat="46.041160000" lon="4.154000000">
        <ele>315.000</ele>
      </trkpt>
      <trkpt lat="46.040990000" lon="4.153070000">
        <ele>315.000</ele>
      </trkpt>
      <trkpt lat="46.040850000" lon="4.152280000">
        <ele>315.000</ele>
      </trkpt>
      <trkpt lat="46.040770000" lon="4.151800000">
        <ele>314.000</ele>
      </trkpt>
      <trkpt lat="46.040730000" lon="4.151430000">
        <ele>314.000</ele>
      </trkpt>
      <trkpt lat="46.040720000" lon="4.151000000">
        <ele>313.000</ele>
      </trkpt>
      <trkpt lat="46.040770000" lon="4.150010000">
        <ele>312.000</ele>
      </trkpt>
      <trkpt lat="46.040810000" lon="4.149350000">
        <ele>311.000</ele>
      </trkpt>
      <trkpt lat="46.040820000" lon="4.148890000">
        <ele>311.000</ele>
      </trkpt>
      <trkpt lat="46.040810000" lon="4.148410000">
        <ele>311.000</ele>
      </trkpt>
      <trkpt lat="46.040760000" lon="4.147990000">
        <ele>312.000</ele>
      </trkpt>
      <trkpt lat="46.040660000" lon="4.147550000">
        <ele>312.000</ele>
      </trkpt>
      <trkpt lat="46.040460000" lon="4.146980000">
        <ele>312.000</ele>
      </trkpt>
      <trkpt lat="46.040200000" lon="4.146320000">
        <ele>313.000</ele>
      </trkpt>
      <trkpt lat="46.039160000" lon="4.143580000">
        <ele>313.000</ele>
      </trkpt>
      <trkpt lat="46.038580000" lon="4.142010000">
        <ele>312.000</ele>
      </trkpt>
      <trkpt lat="46.038000000" lon="4.140510000">
        <ele>311.000</ele>
      </trkpt>
      <trkpt lat="46.037870000" lon="4.140160000">
        <ele>310.000</ele>
      </trkpt>
      <trkpt lat="46.037470000" lon="4.139340000">
        <ele>310.000</ele>
      </trkpt>
      <trkpt lat="46.037310000" lon="4.138960000">
        <ele>310.000</ele>
      </trkpt>
      <trkpt lat="46.037080000" lon="4.138280000">
        <ele>310.000</ele>
      </trkpt>
      <trkpt lat="46.036930000" lon="4.137770000">
        <ele>310.000</ele>
      </trkpt>
      <trkpt lat="46.036850000" lon="4.137340000">
        <ele>310.000</ele>
      </trkpt>
      <trkpt lat="46.036740000" lon="4.136660000">
        <ele>309.000</ele>
      </trkpt>
      <trkpt lat="46.036660000" lon="4.136170000">
        <ele>309.000</ele>
      </trkpt>
      <trkpt lat="46.036570000" lon="4.135850000">
        <ele>308.000</ele>
      </trkpt>
      <trkpt lat="46.036500000" lon="4.135570000">
        <ele>307.000</ele>
      </trkpt>
      <trkpt lat="46.036470000" lon="4.135330000">
        <ele>307.000</ele>
      </trkpt>
      <trkpt lat="46.036450000" lon="4.135120000">
        <ele>307.000</ele>
      </trkpt>
      <trkpt lat="46.036460000" lon="4.134490000">
        <ele>307.000</ele>
      </trkpt>
      <trkpt lat="46.036450000" lon="4.134150000">
        <ele>307.000</ele>
      </trkpt>
      <trkpt lat="46.036420000" lon="4.133850000">
        <ele>307.000</ele>
      </trkpt>
      <trkpt lat="46.036400000" lon="4.133730000">
        <ele>308.000</ele>
      </trkpt>
      <trkpt lat="46.036230000" lon="4.132870000">
        <ele>308.000</ele>
      </trkpt>
      <trkpt lat="46.036120000" lon="4.132380000">
        <ele>308.000</ele>
      </trkpt>
      <trkpt lat="46.036090000" lon="4.132190000">
        <ele>308.000</ele>
      </trkpt>
      <trkpt lat="46.036090000" lon="4.132140000">
        <ele>307.000</ele>
      </trkpt>
      <trkpt lat="46.036070000" lon="4.131850000">
        <ele>307.000</ele>
      </trkpt>
      <trkpt lat="46.036120000" lon="4.131270000">
        <ele>306.000</ele>
      </trkpt>
      <trkpt lat="46.036140000" lon="4.131040000">
        <ele>306.000</ele>
      </trkpt>
      <trkpt lat="46.036180000" lon="4.130800000">
        <ele>305.000</ele>
      </trkpt>
      <trkpt lat="46.036230000" lon="4.130590000">
        <ele>305.000</ele>
      </trkpt>
      <trkpt lat="46.036410000" lon="4.130030000">
        <ele>304.000</ele>
      </trkpt>
      <trkpt lat="46.036480000" lon="4.129800000">
        <ele>303.000</ele>
      </trkpt>
      <trkpt lat="46.036540000" lon="4.129570000">
        <ele>303.000</ele>
      </trkpt>
      <trkpt lat="46.036670000" lon="4.129030000">
        <ele>302.000</ele>
      </trkpt>
      <trkpt lat="46.036750000" lon="4.128640000">
        <ele>301.000</ele>
      </trkpt>
      <trkpt lat="46.036790000" lon="4.128430000">
        <ele>301.000</ele>
      </trkpt>
      <trkpt lat="46.036850000" lon="4.128230000">
        <ele>300.000</ele>
      </trkpt>
      <trkpt lat="46.036900000" lon="4.128020000">
        <ele>299.000</ele>
      </trkpt>
      <trkpt lat="46.036970000" lon="4.127790000">
        <ele>299.000</ele>
      </trkpt>
      <trkpt lat="46.037130000" lon="4.126640000">
        <ele>298.000</ele>
      </trkpt>
      <trkpt lat="46.037200000" lon="4.126130000">
        <ele>297.000</ele>
      </trkpt>
      <trkpt lat="46.037210000" lon="4.125890000">
        <ele>297.000</ele>
      </trkpt>
      <trkpt lat="46.037190000" lon="4.125640000">
        <ele>296.000</ele>
      </trkpt>
      <trkpt lat="46.037070000" lon="4.125160000">
        <ele>296.000</ele>
      </trkpt>
      <trkpt lat="46.036980000" lon="4.124700000">
        <ele>296.000</ele>
      </trkpt>
      <trkpt lat="46.036950000" lon="4.124450000">
        <ele>296.000</ele>
      </trkpt>
      <trkpt lat="46.036970000" lon="4.124170000">
        <ele>296.000</ele>
      </trkpt>
      <trkpt lat="46.037040000" lon="4.123890000">
        <ele>296.000</ele>
      </trkpt>
      <trkpt lat="46.037060000" lon="4.123720000">
        <ele>296.000</ele>
      </trkpt>
      <trkpt lat="46.037090000" lon="4.122200000">
        <ele>296.000</ele>
      </trkpt>
      <trkpt lat="46.037080000" lon="4.121930000">
        <ele>295.000</ele>
      </trkpt>
      <trkpt lat="46.037080000" lon="4.121840000">
        <ele>294.000</ele>
      </trkpt>
      <trkpt lat="46.037150000" lon="4.121600000">
        <ele>294.000</ele>
      </trkpt>
      <trkpt lat="46.037190000" lon="4.121460000">
        <ele>294.000</ele>
      </trkpt>
      <trkpt lat="46.037220000" lon="4.121400000">
        <ele>293.000</ele>
      </trkpt>
      <trkpt lat="46.037220000" lon="4.121500000">
        <ele>293.000</ele>
      </trkpt>
      <trkpt lat="46.037230000" lon="4.121640000">
        <ele>293.000</ele>
      </trkpt>
      <trkpt lat="46.037240000" lon="4.121880000">
        <ele>294.000</ele>
      </trkpt>
      <trkpt lat="46.037310000" lon="4.123170000">
        <ele>298.000</ele>
      </trkpt>
      <trkpt lat="46.037350000" lon="4.123280000">
        <ele>301.000</ele>
      </trkpt>
      <trkpt lat="46.037410000" lon="4.123270000">
        <ele>303.000</ele>
      </trkpt>
      <trkpt lat="46.037510000" lon="4.123120000">
        <ele>305.000</ele>
      </trkpt>
      <trkpt lat="46.037560000" lon="4.123020000">
        <ele>306.000</ele>
      </trkpt>
      <trkpt lat="46.037560000" lon="4.123020000">
        <ele>307.000</ele>
      </trkpt>
      <trkpt lat="46.037650000" lon="4.122870000">
        <ele>309.000</ele>
      </trkpt>
      <trkpt lat="46.037750000" lon="4.122740000">
        <ele>310.000</ele>
      </trkpt>
      <trkpt lat="46.037820000" lon="4.122660000">
        <ele>311.000</ele>
      </trkpt>
      <trkpt lat="46.037900000" lon="4.122610000">
        <ele>312.000</ele>
      </trkpt>
      <trkpt lat="46.038040000" lon="4.122560000">
        <ele>313.000</ele>
      </trkpt>
      <trkpt lat="46.038150000" lon="4.122550000">
        <ele>314.000</ele>
      </trkpt>
      <trkpt lat="46.038110000" lon="4.123120000">
        <ele>316.000</ele>
      </trkpt>
      <trkpt lat="46.038110000" lon="4.123180000">
        <ele>317.000</ele>
      </trkpt>
      <trkpt lat="46.038110000" lon="4.123180000">
        <ele>318.000</ele>
      </trkpt>
      <trkpt lat="46.038070000" lon="4.123630000">
        <ele>319.000</ele>
      </trkpt>
      <trkpt lat="46.038020000" lon="4.124270000">
        <ele>322.000</ele>
      </trkpt>
      <trkpt lat="46.038040000" lon="4.124370000">
        <ele>323.000</ele>
      </trkpt>
      <trkpt lat="46.038050000" lon="4.124440000">
        <ele>324.000</ele>
      </trkpt>
      <trkpt lat="46.038500000" lon="4.125590000">
        <ele>328.000</ele>
      </trkpt>
      <trkpt lat="46.038560000" lon="4.125740000">
        <ele>330.000</ele>
      </trkpt>
      <trkpt lat="46.038630000" lon="4.125790000">
        <ele>332.000</ele>
      </trkpt>
      <trkpt lat="46.038680000" lon="4.125760000">
        <ele>333.000</ele>
      </trkpt>
      <trkpt lat="46.038700000" lon="4.125610000">
        <ele>334.000</ele>
      </trkpt>
      <trkpt lat="46.038710000" lon="4.125120000">
        <ele>335.000</ele>
      </trkpt>
      <trkpt lat="46.038730000" lon="4.125010000">
        <ele>336.000</ele>
      </trkpt>
      <trkpt lat="46.038790000" lon="4.124960000">
        <ele>337.000</ele>
      </trkpt>
      <trkpt lat="46.038900000" lon="4.124980000">
        <ele>338.000</ele>
      </trkpt>
      <trkpt lat="46.039050000" lon="4.125110000">
        <ele>339.000</ele>
      </trkpt>
      <trkpt lat="46.039400000" lon="4.125640000">
        <ele>340.000</ele>
      </trkpt>
      <trkpt lat="46.039460000" lon="4.125680000">
        <ele>341.000</ele>
      </trkpt>
      <trkpt lat="46.039770000" lon="4.125880000">
        <ele>342.000</ele>
      </trkpt>
      <trkpt lat="46.040060000" lon="4.126180000">
        <ele>344.000</ele>
      </trkpt>
      <trkpt lat="46.040420000" lon="4.126630000">
        <ele>345.000</ele>
      </trkpt>
      <trkpt lat="46.040450000" lon="4.126720000">
        <ele>347.000</ele>
      </trkpt>
    </trkseg>
  </trk>
</gpx>
